OBJECT_NAME,OBJECT_ID,EPOCH,MEAN_MOTION,ECCENTRICITY,INCLINATION,RA_OF_ASC_NODE,ARG_OF_PERICENTER,MEAN_ANOMALY,EPHEMERIS_TYPE,CLASSIFICATION_TYPE,NORAD_CAT_ID,ELEMENT_SET_NO,REV_AT_EPOCH,BSTAR,MEAN_MOTION_DOT,MEAN_MOTION_DDOT
STARLINK-37638,2026-110W,2026-07-23T06:33:36.290880,15.33445591,.00013998,97.2875,40.2354,92.5321,267.6082,0,U,69144,999,1114,.33494299E-3,.10754E-3,0
STARLINK-37657,2026-110X,2026-07-23T01:47:47.371776,15.33437007,.00019489,97.2858,40.0461,91.4062,268.7404,0,U,69145,999,1111,.39801047E-3,.12793E-3,0
STARLINK-37639,2026-110Y,2026-07-23T06:25:47.687520,15.33442802,.00026366,97.2862,40.2434,87.8622,272.2922,0,U,69146,999,1114,.59227671E-3,.19094E-3,0
STARLINK-37661,2026-110Z,2026-07-23T06:21:51.784416,15.33443339,.0001599,97.2863,40.2435,95.5116,264.6309,0,U,69147,999,1114,.39697427E-3,.12762E-3,0
STARLINK-37395,2026-111A,2026-07-23T08:30:41.857632,15.34392443,.00016357,53.1607,341.8452,108.1401,251.9779,0,U,69148,999,982,.10072956E-2,.33802E-3,0
STARLINK-37346,2026-111B,2026-07-23T08:27:47.712384,15.34387773,.00003092,53.1595,342.5612,181.1943,178.9059,0,U,69149,999,981,.99535242E-3,.3339E-3,0
STARLINK-37332,2026-111C,2026-07-23T09:58:34.519584,15.34392500,.00022237,53.1561,342.2468,89.7828,270.3430,0,U,69150,999,982,.10200581E-2,.34238E-3,0
STARLINK-37297,2026-111D,2026-07-21T20:24:25.843968,15.34414293,.00011866,53.1591,349.5240,93.3167,266.7972,0,U,69151,999,958,.64986868E-3,.21654E-3,0
STARLINK-37317,2026-111E,2026-07-23T09:52:30.182016,15.34397030,.00023019,53.1588,342.1971,92.3745,267.7521,0,U,69152,999,982,.89096018E-3,.29844E-3,0
STARLINK-37374,2026-111F,2026-07-23T09:49:28.985664,15.34377010,.00008438,53.1583,342.2128,51.9566,308.1512,0,U,69153,999,982,.73014572E-3,.24355E-3,0
STARLINK-37235,2026-111G,2026-07-23T09:43:25.413600,15.34405680,.00020445,53.1582,342.1912,84.4829,275.6407,0,U,69154,999,982,.96234061E-3,.32284E-3,0
STARLINK-37329,2026-111H,2026-07-23T09:46:26.778432,15.34408806,.00022707,53.1567,342.1702,331.6034,28.4844,0,U,69155,999,982,.77154158E-3,.25789E-3,0
STARLINK-37345,2026-111J,2026-07-22T19:36:11.966688,15.34451029,.00013438,53.1620,344.8855,317.1742,42.9156,0,U,69156,999,973,.11124869E-2,.3746E-3,0
STARLINK-37353,2026-111K,2026-07-23T09:37:21.368064,15.34401166,.00017844,53.1558,342.1278,75.0333,285.0867,0,U,69157,999,982,.83273109E-3,.27865E-3,0
STARLINK-37363,2026-111L,2026-07-21T18:29:25.510560,15.34413179,.00009408,53.1578,349.7278,89.1055,271.0056,0,U,69158,999,957,.46201156E-3,.15272E-3,0
STARLINK-37343,2026-111M,2026-07-23T09:31:18.037056,15.34389446,.00027734,53.1578,342.1313,96.9760,263.1558,0,U,69159,999,982,.77775327E-3,.25985E-3,0
STARLINK-37328,2026-111N,2026-07-23T09:28:15.954240,15.34397529,.00017034,53.1582,342.0874,98.0247,262.0949,0,U,69160,999,982,.80069276E-3,.26771E-3,0
STARLINK-37311,2026-111P,2026-07-22T19:21:03.842208,15.34425722,.00019586,53.1597,344.8166,83.3811,276.7414,0,U,69161,999,973,.81691612E-3,.27348E-3,0
STARLINK-36286,2026-111Q,2026-07-22T16:10:26.619744,15.34427184,.00038792,53.1648,345.4253,98.0884,262.0559,0,U,69162,999,971,.93610692E-3,.31416E-3,0
STARLINK-37196,2026-111R,2026-07-23T14:00:33.422688,15.34395011,.00001673,53.1632,341.1369,221.1744,138.9246,0,U,69163,999,985,.46158607E-3,.15249E-3,0
STARLINK-36288,2026-111S,2026-07-23T09:16:11.082432,15.34333043,.0001454,53.1572,342.0442,98.8274,261.2893,0,U,69164,999,982,.67834013E-3,.22563E-3,0
STARLINK-37445,2026-111T,2026-07-23T09:13:06.897504,15.34391525,.00008264,53.1598,342.0327,122.7170,237.3912,0,U,69165,999,982,.63539613E-3,.21146E-3,0
STARLINK-37491,2026-111U,2026-07-23T09:10:04.673856,15.34392241,.00015116,53.1513,342.0112,83.5015,276.6160,0,U,69166,999,982,.75804474E-3,.25316E-3,0
STARLINK-37474,2026-111V,2026-07-23T09:07:03.589824,15.34392460,.00022163,53.1578,341.9967,87.0142,273.1114,0,U,69167,999,982,.76628808E-3,.25597E-3,0
STARLINK-37469,2026-111W,2026-07-22T18:59:51.434592,15.34436016,.00004421,53.1606,344.7555,100.7704,259.3349,0,U,69168,999,973,.11447088E-2,.38543E-3,0
STARLINK-37515,2026-111X,2026-07-23T09:00:59.702400,15.34397355,.00015996,53.1576,341.9745,95.3867,264.7318,0,U,69169,999,982,.40328467E-3,.13272E-3,0
STARLINK-37437,2026-111Y,2026-07-23T08:57:57.842496,15.34404993,.00010604,53.1589,341.9573,105.8064,254.3055,0,U,69170,999,982,.82649568E-3,.27656E-3,0
STARLINK-37392,2026-111Z,2026-07-22T18:38:38.492160,15.34442953,.00008248,53.1597,344.6318,78.4323,281.6772,0,U,69171,999,973,.81537435E-3,.2731E-3,0
STARLINK-37472,2026-111AA,2026-07-22T18:35:37.186944,15.34414511,.00014858,53.1602,344.6280,67.6707,292.4453,0,U,69172,999,973,.70164305E-3,.23415E-3,0
STARLINK-37461,2026-111AB,2026-07-23T12:02:31.970688,15.34391459,.00005367,53.1614,341.3635,50.5962,309.5088,0,U,69173,999,984,.73463823E-3,.24519E-3,0
STARLINK-37333,2026-111AC,2026-07-22T17:13:57.067104,15.34488432,.00008357,53.1608,344.9825,107.3721,252.7373,0,U,69174,999,972,.19118141E-2,.64961E-3,0
STARLINK-37385,2026-111AD,2026-07-22T18:44:42.341568,15.34418965,.00001437,53.1594,344.6847,113.1954,246.9064,0,U,69175,999,973,.8132681E-3,.27218E-3,0
STARLINK-37414,2026-111AE,2026-07-22T18:41:40.149024,15.34420538,.00005704,53.1610,344.6463,155.2141,204.8889,0,U,69176,999,973,.98626025E-3,.33115E-3,0
STRIX-7,2026-112A,2026-07-23T13:31:58.843200,15.01654869,.0025423,44.9085,1.3600,252.8276,106.9812,0,U,69177,999,934,.3169849E-3,.3975E-4,0
SHENZHOU-23 (SZ-23),2026-113A,2026-07-23T00:49:30.417312,15.58280026,.00017398,41.4690,104.3124,306.7625,53.3054,0,U,69180,999,29818,.14911554E-3,.11304E-3,0
STARLINK-37380,2026-114A,2026-07-23T12:01:35.547168,15.34437668,.00008174,53.1600,29.8723,97.7802,262.3293,0,U,69182,999,1038,.78814852E-3,.26378E-3,0
STARLINK-37089,2026-114B,2026-07-23T11:58:35.866272,15.34399676,.00033677,53.1546,29.8607,79.1733,280.9649,0,U,69183,999,1038,.64635356E-3,.21526E-3,0
STARLINK-37428,2026-114C,2026-07-23T11:55:33.843936,15.34364555,.00010244,53.1603,29.8506,102.5991,257.5126,0,U,69184,999,1038,.86995432E-3,.29098E-3,0
STARLINK-37237,2026-114D,2026-07-22T21:48:21.534048,15.34417262,.0000761,53.1615,32.5771,152.4971,207.6072,0,U,69185,999,1029,.97487878E-3,.32723E-3,0
STARLINK-37365,2026-114E,2026-07-22T21:45:19.659456,15.34431099,.0000292,53.1628,32.5618,137.1310,222.9715,0,U,69186,999,1029,.72964892E-3,.24381E-3,0
STARLINK-37209,2026-114F,2026-07-23T11:46:28.296192,15.34418711,.00034183,53.1606,29.8112,305.4404,54.6279,0,U,69187,999,1038,.95204939E-3,.3195E-3,0
STARLINK-37359,2026-114G,2026-07-23T05:28:15.960000,15.34392082,.00033963,53.1530,31.0086,76.3245,283.8135,0,U,69188,999,1034,.64541151E-3,.21489E-3,0
STARLINK-37440,2026-114H,2026-07-23T11:40:24.488256,15.34379718,.00008294,53.1661,29.7750,240.0753,120.0168,0,U,69189,999,1038,-.18407934E-3,-.6586E-4,0
STARLINK-37282,2026-114J,2026-07-23T11:34:21.221184,15.34400844,.0002929,53.1600,29.7473,78.9204,281.2128,0,U,69190,999,1038,.62179381E-3,.20692E-3,0
STARLINK-37422,2026-114K,2026-07-23T05:22:11.790048,15.34392357,.00021617,53.1592,30.9743,81.0379,279.0869,0,U,69191,999,1034,.84769887E-3,.28367E-3,0
STARLINK-37424,2026-114L,2026-07-23T13:05:07.069344,15.34387629,.0001315,53.1577,29.4271,104.9849,255.1299,0,U,69192,999,1039,.70805688E-3,.23613E-3,0
STARLINK-36666,2026-114M,2026-07-23T13:02:05.151552,15.34399331,.00010887,53.1586,29.4165,93.0030,267.1097,0,U,69193,999,1039,.77625124E-3,.25941E-3,0
STARLINK-37355,2026-114N,2026-07-23T12:59:03.996672,15.34376629,.00018785,53.1580,29.4002,99.3221,260.7994,0,U,69194,999,1039,.88500078E-3,.29621E-3,0
STARLINK-37166,2026-114P,2026-07-22T22:48:49.383648,15.34428520,.00018571,53.1602,32.1184,334.0351,26.0558,0,U,69195,999,1030,.72922723E-3,.24364E-3,0
STARLINK-36933,2026-114Q,2026-07-23T12:56:01.485312,15.34386083,.0001582,53.1569,29.3835,97.7427,262.3755,0,U,69196,999,1039,.63672291E-3,.21188E-3,0
STARLINK-37419,2026-114R,2026-07-23T12:49:58.034208,15.34407956,.00014876,53.1596,29.3544,316.0495,44.0389,0,U,69197,999,1039,.99917045E-3,.33542E-3,0
STARLINK-37321,2026-114S,2026-07-23T12:46:56.258976,15.34401528,.00019208,53.1566,29.3410,86.6582,273.4640,0,U,69198,999,1039,.77989652E-3,.26067E-3,0
STARLINK-37406,2026-114T,2026-07-23T14:17:41.879040,15.34425597,.00005646,53.1652,29.0427,62.0937,298.0123,0,U,69199,999,1040,.56986533E-3,.18942E-3,0
STARLINK-37761,2026-114U,2026-07-23T12:40:52.809600,15.34395201,.00012447,53.1600,29.3318,94.0273,266.0871,0,U,69200,999,1039,.79120637E-3,.26446E-3,0
STARLINK-37754,2026-114V,2026-07-23T14:00:01.000224,15.34386826,.0001012,53.1605,29.0491,90.4821,224.9730,0,U,69201,999,583,.28363125E-3,.9215E-4,0
STARLINK-37649,2026-114W,2026-07-23T12:34:48.988704,15.34383809,.00011008,53.1605,29.2803,101.9677,258.1450,0,U,69202,999,1039,.11145898E-2,.37451E-3,0
STARLINK-37604,2026-114X,2026-07-23T12:31:47.527968,15.34404520,.00027344,53.1602,29.2779,88.0084,272.1232,0,U,69203,999,1039,.90448666E-3,.30313E-3,0
STARLINK-37669,2026-114Y,2026-07-22T22:24:35.244864,15.34458816,.00005866,53.1611,32.0159,297.6586,62.4357,0,U,69204,999,1030,.1181858E-2,.39842E-3,0
STARLINK-37691,2026-114Z,2026-07-22T22:15:30.098016,15.34410954,.00009863,53.1614,31.9646,55.2879,304.8216,0,U,69205,999,1030,.10893068E-2,.3662E-3,0
STARLINK-37671,2026-114AA,2026-07-22T22:18:31.753152,15.34411214,.00008172,53.1608,31.9716,45.2310,314.8759,0,U,69206,999,1030,.85615189E-3,.28671E-3,0
STARLINK-37647,2026-114AB,2026-07-22T12:58:47.194464,15.34455652,.00010225,53.1604,33.8175,84.0911,276.0208,0,U,69207,999,1024,.11683232E-2,.39375E-3,0
STARLINK-37562,2026-114AC,2026-07-23T12:16:38.223264,15.34391722,.00015709,53.1607,29.2119,106.2997,253.8179,0,U,69208,999,1040,.48881535E-3,.1617E-3,0
STARLINK-37682,2026-114AD,2026-07-22T22:09:26.206272,15.34416257,.00008825,53.1610,31.9284,88.2110,271.8994,0,U,69209,999,1030,.12961097E-2,.43693E-3,0
STARLINK-37402,2026-114AE,2026-07-23T12:10:34.639104,15.34402867,.0001564,53.1608,29.1758,67.9742,292.1426,0,U,69210,999,1039,.29183224E-3,.9497E-4,0
